COSMOS 2434 (721)       
1 32393U 07065A   24225.91321186  .00000104  00000+0  00000+0 0  9997
2 32393  64.3217 214.6517 0000299 328.0686 218.3110  2.13101410129421
COSMOS 2436 (723)       
1 32395U 07065C   24225.60732198  .00000103  00000+0  00000+0 0  9993
2 32395  64.3301 214.7272 0016173 352.4916  94.4060  2.13100217129387
GPS BIIRM-5 (PRN 29)    
1 32384U 07062A   24225.69968095 -.00000041  00000+0  00000+0 0  9996
2 32384  55.5907 301.1167 0029128 155.9172  16.8180  2.00577854122001
GPS BIIRM-6 (PRN 07)    
1 32711U 08012A   24225.55915101  .00000047  00000+0  00000+0 0  9996
2 32711  54.4526 176.8032 0189149 239.7208 118.3806  2.00569717120245
GPS BIIRM-8 (PRN 05)    
1 35752U 09043A   24225.55241808 -.00000037  00000+0  00000+0 0  9995
2 35752  55.7211  54.0430 0057147  74.2782 296.1727  2.00566085109854
